[{"OBJECT_NAME":"COSMOS 2251 DEB","OBJECT_ID":"1993-036AQB","EPOCH":"2026-02-28T00:21:30.794400","MEAN_MOTION":13.66200856,"ECCENTRICITY":0.03433388,"INCLINATION":73.8943,"RA_OF_ASC_NODE":295.1087,"ARG_OF_PERICENTER":331.0487,"MEAN_ANOMALY":27.1951,"EPHEMERIS_TYPE":0,"CLASSIFICATION_TYPE":"U","NORAD_CAT_ID":35706,"ELEMENT_SET_NO":999,"REV_AT_EPOCH":63117,"BSTAR":0.00080644983,"MEAN_MOTION_DOT":9.73e-6,"MEAN_MOTION_DDOT":0},{"OBJECT_NAME":"COSMOS 2251 DEB","OBJECT_ID":"1993-036AQG","EPOCH":"2026-03-05T23:24:33.157728","MEAN_MOTION":14.64089383,"ECCENTRICITY":0.00832927,"INCLINATION":74.0449,"RA_OF_ASC_NODE":60.7042,"ARG_OF_PERICENTER":141.983,"MEAN_ANOMALY":218.7258,"EPHEMERIS_TYPE":0,"CLASSIFICATION_TYPE":"U","NORAD_CAT_ID":35711,"ELEMENT_SET_NO":999,"REV_AT_EPOCH":88989,"BSTAR":0.00023512898,"MEAN_MOTION_DOT":1.266e-5,"MEAN_MOTION_DDOT":0},{"OBJECT_NAME":"COSMOS 2251 DEB","OBJECT_ID":"1993-036AQM","EPOCH":"2026-03-06T06:10:44.154336","MEAN_MOTION":14.60211073,"ECCENTRICITY":0.00902158,"INCLINATION":73.9941,"RA_OF_ASC_NODE":34.3624,"ARG_OF_PERICENTER":216.4298,"MEAN_ANOMALY":208.0033,"EPHEMERIS_TYPE":0,"CLASSIFICATION_TYPE":"U","NORAD_CAT_ID":35716,"ELEMENT_SET_NO":999,"REV_AT_EPOCH":88846,"BSTAR":0.00015280948,"MEAN_MOTION_DOT":7.46e-6,"MEAN_MOTION_DDOT":0},{"OBJECT_NAME":"COSMOS 2251 DEB","OBJECT_ID":"1993-036AQN","EPOCH":"2026-02-27T09:25:06.820320","MEAN_MOTION":14.39144546,"ECCENTRICITY":0.0081398,"INCLINATION":74.1601,"RA_OF_ASC_NODE":77.1909,"ARG_OF_PERICENTER":274.512,"MEAN_ANOMALY":84.674,"EPHEMERIS_TYPE":0,"CLASSIFICATION_TYPE":"U","NORAD_CAT_ID":35717,"ELEMENT_SET_NO":999,"REV_AT_EPOCH":75202,"BSTAR":0.0012054384,"MEAN_MOTION_DOT":3.854e-5,"MEAN_MOTION_DDOT":0},{"OBJECT_NAME":"COSMOS 2251 DEB","OBJECT_ID":"1993-036AQP","EPOCH":"2026-03-06T01:48:15.062976","MEAN_MOTION":14.70476401,"ECCENTRICITY":0.00098381,"INCLINATION":74.0299,"RA_OF_ASC_NODE":328.4562,"ARG_OF_PERICENTER":350.7299,"MEAN_ANOMALY":9.3689,"EPHEMERIS_TYPE":0,"CLASSIFICATION_TYPE":"U","NORAD_CAT_ID":35718,"ELEMENT_SET_NO":999,"REV_AT_EPOCH":67064,"BSTAR":0.0014839953,"MEAN_MOTION_DOT":8.984e-5,"MEAN_MOTION_DDOT":0},{"OBJECT_NAME":"COSMOS 2251 DEB","OBJECT_ID":"1993-036AQV","EPOCH":"2026-03-07T04:54:14.067936","MEAN_MOTION":14.58433266,"ECCENTRICITY":0.006191,"INCLINATION":74.0324,"RA_OF_ASC_NODE":141.8995,"ARG_OF_PERICENTER":274.1622,"MEAN_ANOMALY":85.2469,"EPHEMERIS_TYPE":0,"CLASSIFICATION_TYPE":"U","NORAD_CAT_ID":35724,"ELEMENT_SET_NO":999,"REV_AT_EPOCH":88760,"BSTAR":0.00027445,"MEAN_MOTION_DOT":1.275e-5,"MEAN_MOTION_DDOT":0},{"OBJECT_NAME":"COSMOS 2251 DEB","OBJECT_ID":"1993-036ARD","EPOCH":"2026-03-06T07:07:03.464832","MEAN_MOTION":14.65225334,"ECCENTRICITY":0.00761326,"INCLINATION":74.0382,"RA_OF_ASC_NODE":55.3171,"ARG_OF_PERICENTER":154.5075,"MEAN_ANOMALY":205.988,"EPHEMERIS_TYPE":0,"CLASSIFICATION_TYPE":"U","NORAD_CAT_ID":35759,"ELEMENT_SET_NO":999,"REV_AT_EPOCH":67359,"BSTAR":0.00030100364,"MEAN_MOTION_DOT":1.659e-5,"MEAN_MOTION_DDOT":0},{"OBJECT_NAME":"COSMOS 2251 DEB","OBJECT_ID":"1993-036ARR","EPOCH":"2026-03-06T07:43:12.772704","MEAN_MOTION":14.15305391,"ECCENTRICITY":0.02106455,"INCLINATION":74.1553,"RA_OF_ASC_NODE":163.1799,"ARG_OF_PERICENTER":77.459,"MEAN_ANOMALY":285.0024,"EPHEMERIS_TYPE":0,"CLASSIFICATION_TYPE":"U","NORAD_CAT_ID":35771,"ELEMENT_SET_NO":999,"REV_AT_EPOCH":84042,"BSTAR":0.0031969549,"MEAN_MOTION_DOT":7.699e-5,"MEAN_MOTION_DDOT":0},{"OBJECT_NAME":"COSMOS 2251 DEB","OBJECT_ID":"1993-036ART","EPOCH":"2026-03-05T13:59:44.139264","MEAN_MOTION":14.62649254,"ECCENTRICITY":0.0047628,"INCLINATION":74.0092,"RA_OF_ASC_NODE":181.8587,"ARG_OF_PERICENTER":318.6881,"MEAN_ANOMALY":41.0686,"EPHEMERIS_TYPE":0,"CLASSIFICATION_TYPE":"U","NORAD_CAT_ID":35773,"ELEMENT_SET_NO":999,"REV_AT_EPOCH":88050,"BSTAR":0.00082392,"MEAN_MOTION_DOT":4.23e-5,"MEAN_MOTION_DDOT":0},{"OBJECT_NAME":"COSMOS 2251 DEB","OBJECT_ID":"1993-036ARX","EPOCH":"2026-03-06T07:32:32.060544","MEAN_MOTION":13.4139328,"ECCENTRICITY":0.04495755,"INCLINATION":73.7705,"RA_OF_ASC_NODE":189.2111,"ARG_OF_PERICENTER":71.4333,"MEAN_ANOMALY":321.4951,"EPHEMERIS_TYPE":0,"CLASSIFICATION_TYPE":"U","NORAD_CAT_ID":35777,"ELEMENT_SET_NO":999,"REV_AT_EPOCH":80805,"BSTAR":0.00039644585,"MEAN_MOTION_DOT":3.81e-6,"MEAN_MOTION_DDOT":0},{"OBJECT_NAME":"COSMOS 2251 DEB","OBJECT_ID":"1993-036ASE","EPOCH":"2026-02-28T08:17:07.542816","MEAN_MOTION":14.50244407,"ECCENTRICITY":0.00400649,"INCLINATION":74.0377,"RA_OF_ASC_NODE":303.9588,"ARG_OF_PERICENTER":53.3479,"MEAN_ANOMALY":307.1353,"EPHEMERIS_TYPE":0,"CLASSIFICATION_TYPE":"U","NORAD_CAT_ID":35784,"ELEMENT_SET_NO":999,"REV_AT_EPOCH":66831,"BSTAR":0.00025354807,"MEAN_MOTION_DOT":9.69e-6,"MEAN_MOTION_DDOT":0},{"OBJECT_NAME":"COSMOS 2251 DEB","OBJECT_ID":"1993-036ASG","EPOCH":"2026-03-06T03:57:42.905088","MEAN_MOTION":14.6731319,"ECCENTRICITY":0.00347958,"INCLINATION":74.0114,"RA_OF_ASC_NODE":242.6188,"ARG_OF_PERICENTER":348.1613,"MEAN_ANOMALY":11.8734,"EPHEMERIS_TYPE":0,"CLASSIFICATION_TYPE":"U","NORAD_CAT_ID":35786,"ELEMENT_SET_NO":999,"REV_AT_EPOCH":74631,"BSTAR":0.0010144694,"MEAN_MOTION_DOT":5.75e-5,"MEAN_MOTION_DDOT":0},{"OBJECT_NAME":"COSMOS 2251 DEB","OBJECT_ID":"1993-036ASK","EPOCH":"2026-03-05T03:41:53.153952","MEAN_MOTION":14.36056925,"ECCENTRICITY":0.00486341,"INCLINATION":74.0383,"RA_OF_ASC_NODE":133.0922,"ARG_OF_PERICENTER":215.247,"MEAN_ANOMALY":144.5465,"EPHEMERIS_TYPE":0,"CLASSIFICATION_TYPE":"U","NORAD_CAT_ID":35789,"ELEMENT_SET_NO":999,"REV_AT_EPOCH":62410,"BSTAR":0.00013701689,"MEAN_MOTION_DOT":3.78e-6,"MEAN_MOTION_DDOT":0},{"OBJECT_NAME":"COSMOS 2251 DEB","OBJECT_ID":"1993-036ASP","EPOCH":"2026-03-04T20:58:23.079072","MEAN_MOTION":14.81216421,"ECCENTRICITY":0.00042076,"INCLINATION":74.037,"RA_OF_ASC_NODE":258.4466,"ARG_OF_PERICENTER":303.96,"MEAN_ANOMALY":120.981,"EPHEMERIS_TYPE":0,"CLASSIFICATION_TYPE":"U","NORAD_CAT_ID":35793,"ELEMENT_SET_NO":999,"REV_AT_EPOCH":67012,"BSTAR":0.0020724214,"MEAN_MOTION_DOT":0.00016148,"MEAN_MOTION_DDOT":0},{"OBJECT_NAME":"COSMOS 2251 DEB","OBJECT_ID":"1993-036ASW","EPOCH":"2026-03-06T20:53:40.577856","MEAN_MOTION":13.88813677,"ECCENTRICITY":0.0251073,"INCLINATION":73.8424,"RA_OF_ASC_NODE":264.1313,"ARG_OF_PERICENTER":334.9295,"MEAN_ANOMALY":23.9805,"EPHEMERIS_TYPE":0,"CLASSIFICATION_TYPE":"U","NORAD_CAT_ID":35824,"ELEMENT_SET_NO":999,"REV_AT_EPOCH":85395,"BSTAR":0.0010159,"MEAN_MOTION_DOT":1.553e-5,"MEAN_MOTION_DDOT":0},{"OBJECT_NAME":"COSMOS 2251 DEB","OBJECT_ID":"1993-036ASX","EPOCH":"2026-02-27T13:11:35.182464","MEAN_MOTION":13.71298576,"ECCENTRICITY":0.03492386,"INCLINATION":74.1141,"RA_OF_ASC_NODE":16.324,"ARG_OF_PERICENTER":94.1717,"MEAN_ANOMALY":269.9389,"EPHEMERIS_TYPE":0,"CLASSIFICATION_TYPE":"U","NORAD_CAT_ID":35825,"ELEMENT_SET_NO":999,"REV_AT_EPOCH":83561,"BSTAR":0.0015526254,"MEAN_MOTION_DOT":2.131e-5,"MEAN_MOTION_DDOT":0}]
