COSMOS 2251 DEB         
1 35706U 93036AQB 26059.01493975  .00000973  00000+0  80645-3 0  9996
2 35706  73.8943 295.1087 0343338 331.0487  27.1951 13.66200856631179
COSMOS 2251 DEB         
1 35711U 93036AQG 26064.97538377  .00001266  00000+0  23513-3 0  9996
2 35711  74.0449  60.7042 0083292 141.9830 218.7258 14.64089383889897
COSMOS 2251 DEB         
1 35716U 93036AQM 26065.25745549  .00000746  00000+0  15281-3 0  9999
2 35716  73.9941  34.3624 0090215 216.4298 208.0033 14.60211073888463
COSMOS 2251 DEB         
1 35717U 93036AQN 26058.39244005  .00003854  00000+0  12054-2 0  9995
2 35717  74.1601  77.1909 0081398 274.5120  84.6740 14.39144546752023
COSMOS 2251 DEB         
1 35718U 93036AQP 26065.07517434  .00008984  00000+0  14840-2 0  9992
2 35718  74.0299 328.4562 0009838 350.7299   9.3689 14.70476401670642
COSMOS 2251 DEB         
1 35724U 93036AQV 26066.20432949  .00001275  00000+0  27445-3 0  9994
2 35724  74.0324 141.8995 0061910 274.1622  85.2469 14.58433266887606
COSMOS 2251 DEB         
1 35759U 93036ARD 26065.29656788  .00001659  00000+0  30100-3 0  9997
2 35759  74.0382  55.3171 0076132 154.5075 205.9880 14.65225334673590
COSMOS 2251 DEB         
1 35771U 93036ARR 26065.32167561  .00007699  00000+0  31970-2 0  9996
2 35771  74.1553 163.1799 0210645  77.4590 285.0024 14.15305391840427
COSMOS 2251 DEB         
1 35773U 93036ART 26064.58314976  .00004230  00000+0  82392-3 0  9992
2 35773  74.0092 181.8587 0047628 318.6881  41.0686 14.62649254880508
COSMOS 2251 DEB         
1 35777U 93036ARX 26065.31425996  .00000381  00000+0  39645-3 0  9999
2 35777  73.7705 189.2111 0449575  71.4333 321.4951 13.41393280808058
COSMOS 2251 DEB         
1 35784U 93036ASE 26059.34522619  .00000969  00000+0  25355-3 0  9998
2 35784  74.0377 303.9588 0040064  53.3479 307.1353 14.50244407668315
COSMOS 2251 DEB         
1 35786U 93036ASG 26065.16507992  .00005750  00000+0  10145-2 0  9997
2 35786  74.0114 242.6188 0034795 348.1613  11.8734 14.67313190746313
COSMOS 2251 DEB         
1 35789U 93036ASK 26064.15408743  .00000378  00000+0  13702-3 0  9996
2 35789  74.0383 133.0922 0048634 215.2470 144.5465 14.36056925624108
COSMOS 2251 DEB         
1 35793U 93036ASP 26063.87387823  .00016148  00000+0  20724-2 0  9997
2 35793  74.0370 258.4466 0004207 303.9600 120.9810 14.81216421670126
COSMOS 2251 DEB         
1 35824U 93036ASW 26065.87060854  .00001553  00000+0  10159-2 0  9991
2 35824  73.8424 264.1313 0251073 334.9295  23.9805 13.88813677853954
COSMOS 2251 DEB         
1 35825U 93036ASX 26058.54971276  .00002131  00000+0  15526-2 0  9993
2 35825  74.1141  16.3240 0349238  94.1717 269.9389 13.71298576835615
